{"fetched_at":"2026-03-29T02:12:04Z","count":15717,"tles":[{"name":"STARLINK-3125","line1":"1 49451U 21104AV  26087.49191623  .00000363  00000+0  40907-4 0  9994","line2":"2 49451  53.2159 134.7146 0001221  89.9229 270.1903 15.08840658241612","category":"Starlink"}]}