{
  "norad_id": 49451,
  "name": "STARLINK-3125",
  "history": [
    {
      "epoch": "2026-03-28T11:48:21.562272",
      "apogee_km": 540.5861198507755,
      "perigee_km": 538.896635593368,
      "latitude_deg": -35.2177127432061,
      "longitude_deg": -107.67604191973805,
      "semi_major_axis_km": 6917.8783777220715,
      "eccentricity": 0.00012211,
      "inclination_deg": 53.2159,
      "raan_deg": 134.7146,
      "arg_perigee_deg": 89.9229,
      "mean_anomaly_deg": 270.1903,
      "mean_motion_rev_day": 15.08840658
    }
  ]
}